GOES 1 (SMS-C) [-]      
1 08366U 75100A   22237.43697010 -.00000229  00000+0  00000+0 0  9994
2 08366   8.1138 294.8583 0002798 240.6744 234.8917  1.00271976171116
GOES 2 [-]              
1 10061U 77048A   22237.47751490  .00000050  00000+0  00000+0 0  9990
2 10061   9.6973 306.3557 0010085  27.0521  18.0305  0.99398267 32447
GOES 3 [-]              
1 10953U 78062A   22236.82325911  .00000103  00000+0  00000+0 0  9999
2 10953  10.0310 310.8929 0003230 164.6028 213.6480  0.99357900114701
GOES 4 [-]              
1 11964U 80074A   22236.89739539 -.00000072  00000+0  00000+0 0  9996
2 11964  10.9931 314.7179 0032058  78.1997 358.7623  0.99227591113628
GOES 5 [-]              
1 12472U 81049A   22237.25131053 -.00000267  00000+0  00000+0 0  9998
2 12472  11.8412 326.1070 0002593 175.9772 208.7724  1.00308358108895
GOES 6 [-]              
1 14050U 83041A   22237.24967469 -.00000256  00000+0  00000+0 0  9991
2 14050  12.4048 331.4193 0005329 153.7157 221.9272  1.00288984202068
GOES 7 [-]              
1 17561U 87022A   22237.53538744 -.00000243  00000+0  00000+0 0  9992
2 17561  14.1838 347.9768 0005335  81.7091 251.3585  0.99910151113057
GOES 8 [-]              
1 23051U 94022A   22237.10308508 -.00000075  00000+0  00000+0 0  9990
2 23051  13.2341  23.6992 0006244  57.3641 313.6913  0.98905945110366
GOES 9 [-]              
1 23581U 95025A   22237.49039712 -.00000007  00000+0  00000+0 0  9997
2 23581  12.7281  24.0414 0008946 107.9188 280.2135  0.98798194 99013
GOES 10 [-]             
1 24786U 97019A   22237.10168990 -.00000091  00000+0  00000+0 0  9992
2 24786  11.4954  30.2304 0026552 199.0196 157.3633  0.99126222 92260
GOES 11 [-]             
1 26352U 00022A   22237.49902301  .00000045  00000+0  00000+0 0  9993
2 26352   8.8263  58.7636 0002365 102.7234 212.9095  0.99041767 38683
GOES 12 [-]             
1 26871U 01031A   22237.48314023 -.00000279  00000+0  00000+0 0  9997
2 26871   9.6384  47.7202 0004349 341.9752 275.8235  0.99140983 76962
EWS-G1 (GOES 13) [+]    
1 29155U 06018A   22237.46934270  .00000032  00000+0  00000+0 0  9991
2 29155   0.7601  96.3715 0005791 104.2967   3.4455  1.00274978 29426
GOES 14 [B]             
1 35491U 09033A   22237.54027097 -.00000096  00000+0  00000+0 0  9991
2 35491   0.4750  94.0350 0015045 119.7929 209.9146  1.00272625 48158
GOES 15 [B]             
1 36411U 10008A   22237.51172653  .00000049  00000+0  00000+0 0  9991
2 36411   0.4129 276.5370 0004634 250.0339 223.3842  1.00275253 45718
GOES 16 [+]             
1 41866U 16071A   22237.47614868 -.00000252  00000+0  00000+0 0  9998
2 41866   0.0623 276.7252 0000602 304.2370 208.9599  1.00271675 21156
GOES 17 [+]             
1 43226U 18022A   22237.50007486  .00000093  00000+0  00000+0 0  9996
2 43226   0.1012 277.0340 0000218 267.8962 191.5157  1.00273075 16468
GOES 18 [+]             
1 51850U 22021A   22237.50175267  .00000092  00000+0  00000+0 0  9994
2 51850   0.0309  74.1899 0002796 138.8647 164.3182  1.00271754  1825
